[{"OBJECT_NAME":"YUNHAI-1 03","OBJECT_ID":"2022-115A","EPOCH":"2026-03-09T22:42:18.502272","MEAN_MOTION":14.32645592,"ECCENTRICITY":0.00045037,"INCLINATION":98.5539,"RA_OF_ASC_NODE":68.3628,"ARG_OF_PERICENTER":355.0463,"MEAN_ANOMALY":5.0676,"EPHEMERIS_TYPE":0,"CLASSIFICATION_TYPE":"U","NORAD_CAT_ID":53877,"ELEMENT_SET_NO":999,"REV_AT_EPOCH":18130,"BSTAR":0.00016609215,"MEAN_MOTION_DOT":4.08e-6,"MEAN_MOTION_DDOT":0},{"OBJECT_NAME":"HAIYANG-1A","OBJECT_ID":"2002-024A","EPOCH":"2026-03-09T21:05:00.021408","MEAN_MOTION":14.3308458,"ECCENTRICITY":0.00091147,"INCLINATION":98.7175,"RA_OF_ASC_NODE":30.1946,"ARG_OF_PERICENTER":17.0301,"MEAN_ANOMALY":343.1187,"EPHEMERIS_TYPE":0,"CLASSIFICATION_TYPE":"U","NORAD_CAT_ID":27430,"ELEMENT_SET_NO":999,"REV_AT_EPOCH":24360,"BSTAR":0.00018938608,"MEAN_MOTION_DOT":4.74e-6,"MEAN_MOTION_DDOT":0}]
